AMC-1 (GE-1)            
1 24315U 96054A   22091.60638709  .00000055  00000+0  00000+0 0  9990
2 24315   5.4396  73.7825 0003429 288.5555 274.9869  1.00273344 30903
AMC-3 (GE-3)            
1 24936U 97050A   22091.50683351 -.00000271  00000+0  00000+0 0  9999
2 24936   4.3581  80.1795 0003046 292.5944 287.5215  1.00271932 37011
ASTRA 1G                
1 25071U 97076A   22091.65703617  .00000106  00000+0  00000+0 0  9998
2 25071   6.0713  68.8576 0003966 296.8617  80.1676  1.00271568 89125
ASTRA 2A                
1 25462U 98050A   22091.51521948  .00000137  00000+0  00000+0 0  9999
2 25462   3.2134  86.3575 0002291 290.0338  26.8890  1.00274972 30915
AMC-4 (GE-4)            
1 25954U 99060A   22091.60278887  .00000076  00000+0  00000+0 0  9990
2 25954   1.3269  92.6724 0003025 278.2830 261.0689  1.00271331 28132
NSS-11 (AAP-1)          
1 26554U 00059A   22091.60829616  .00000012  00000+0  00000+0 0  9999
2 26554   0.0455  64.8840 0002944 312.8947 207.1354  1.00272850 25870
AMC-6 (GE-6)            
1 26580U 00067A   22091.76899632  .00000092  00000+0  00000+0 0  9997
2 26580   0.0405  68.4513 0002574 299.6899 319.7756  1.00271774 78562
ASTRA 2D                
1 26638U 00081A   22091.15544469  .00000119  00000+0  00000+0 0  9995
2 26638   7.1312  60.8113 0001703 306.3888 261.9442  1.00269133 37482
AMC-8 (GE-8)            
1 26639U 00081B   22091.69798972  .00000076  00000+0  00000+0 0  9997
2 26639   2.2541  89.3722 0002812 284.9248 292.0155  1.00273210 77850
ASTRA 2C                
1 26853U 01025A   22091.49515931 -.00000269  00000+0  00000+0 0  9999
2 26853   4.3833  79.9845 0002439 291.7905 283.7982  1.00274773 29629
ASTRA 3A                
1 27400U 02015B   22091.49865845 -.00000213  00000+0  00000+0 0  9999
2 27400   7.2376  59.6683 0001606 284.9980 297.8499  1.00274461 73306
NSS-7                   
1 27414U 02019A   22091.29028391 -.00000168  00000+0  00000+0 0  9992
2 27414   5.7209  71.9229 0002756 303.1756 259.0207  1.00271804 73141
NSS-6                   
1 27603U 02057A   22091.62090192  .00000096  00000+0  00000+0 0  9998
2 27603   1.4175  92.4445 0003443 286.5288 224.9411  1.00272897 70623
AMC-11 (GE-11)          
1 28252U 04017A   22091.60624256  .00000056  00000+0  00000+0 0  9995
2 28252   0.0451  53.4281 0002657 323.6815 260.0496  1.00272081 65461
AMC-15                  
1 28446U 04041A   22091.57380216 -.00000102  00000+0  00000+0 0  9991
2 28446   0.0457  37.1574 0002804 330.2861 283.9557  1.00272489 63906
NSS-10 (AMC-12)         
1 28526U 05003A   22091.43035625 -.00000262  00000+0  00000+0 0  9992
2 28526   2.5929  88.1424 0003004 271.3827 307.7043  1.00272185 37736
ASTRA 1KR               
1 29055U 06012A   22091.29813355  .00000106  00000+0  00000+0 0  9995
2 29055   0.0171 216.1547 0001809  95.0707   4.9600  1.00276830 30306
AMC-18                  
1 29644U 06054B   22091.50050049 -.00000229  00000+0  00000+0 0  9999
2 29644   0.0382  75.5742 0002449 298.4848 272.9453  1.00271291 56121
ASTRA 1L                
1 31306U 07016A   22091.29813355  .00000105  00000+0  00000+0 0  9991
2 31306   0.0537   5.1005 0004345 326.7808 344.2407  1.00270036 29599
ASTRA 4A (SIRIUS 4)     
1 32299U 07057A   22091.39563170  .00000018  00000+0  00000+0 0  9999
2 32299   0.0446  58.6367 0002796 308.4889 329.8238  1.00270991 36250
AMC-21                  
1 33275U 08038B   22091.69982128  .00000023  00000+0  00000+0 0  9991
2 33275   0.0465 291.8637 0002391  80.8988 304.2859  1.00272653 50056
ASTRA 1M                
1 33436U 08057A   22091.29813355  .00000105  00000+0  00000+0 0  9993
2 33436   0.0326 114.9709 0002109 313.5857 247.5354  1.00270676 30302
CIEL-2                  
1 33453U 08063A   22091.60853939  .00000045  00000+0  00000+0 0  9999
2 33453   0.0248 139.1005 0002908 239.3340 261.7120  1.00272178 48713
NSS-9                   
1 33749U 09008A   22091.61405994  .00000058  00000+0  00000+0 0  9996
2 33749   0.0455  52.5895 0002123 309.9821 231.4787  1.00272512 48112
SES-7 (PROTOSTAR 2)     
1 34941U 09027A   22091.84217337 -.00000357  00000+0  00000+0 0  9992
2 34941   0.0854  88.5634 0001121 239.9684 273.0487  1.00272028 47194
NSS-12                  
1 36032U 09058A   22091.22757677  .00000056  00000+0  00000+0 0  9992
2 36032   0.0371  70.7916 0002832 314.9191 302.7644  1.00273162 45490
SES-1                   
1 36516U 10016A   22091.57715721 -.00000127  00000+0  00000+0 0  9997
2 36516   0.0136 172.8400 0002433 194.3046 289.5319  1.00270214 43623
ASTRA 3B                
1 36581U 10021A   22091.80135425  .00000124  00000+0  00000+0 0  9994
2 36581   0.0898  70.8590 0004408 276.4552 154.7788  1.00271328 43232
SES-3                   
1 37748U 11035A   22091.57608580 -.00000115  00000+0  00000+0 0  9998
2 37748   0.0479  51.6573 0002476 324.1689 278.4606  1.00271993 39186
ASTRA 1N                
1 37775U 11041A   22091.72877771  .00000107  00000+0  00000+0 0  9992
2 37775   0.0643  29.0211 0005079 351.1190  91.4752  1.00274947 38980
SES-2                   
1 37809U 11049A   22091.49816944 -.00000209  00000+0  00000+0 0  9991
2 37809   0.0397  75.3083 0002730 294.3392 272.5014  1.00274195 38548
QUETZSAT 1              
1 37826U 11054A   22091.78120687 -.00000254  00000+0  00000+0 0  9990
2 37826   0.0396  51.3047 0002520 324.7608  18.2713  1.00272081 38683
SES-4                   
1 38087U 12007A   22091.35413935 -.00000182  00000+0  00000+0 0  9993
2 38087   0.0197 273.2411 0002447  94.7300 287.2004  1.00272549 36816
SES-5                   
1 38652U 12036A   22091.39563170  .00000019  00000+0  00000+0 0  9992
2 38652   0.0576 293.2521 0001949  71.2017 332.6591  1.00271254 29067
ASTRA 2F                
1 38778U 12051A   22091.51521948  .00000136  00000+0  00000+0 0  9999
2 38778   0.0519 228.4256 0001628  51.6359 123.4293  1.00272057 25707
SES-6                   
1 39172U 13026A   22091.50143902 -.00000275  00000+0  00000+0 0  9995
2 39172   0.0482 293.4632 0002013  82.4281 313.9437  1.00272316 32308
O3B FM5                 
1 39188U 13031A   22091.49460308 -.00000029  00000+0  00000+0 0  9995
2 39188   0.0361  20.4102 0002925   2.7470 336.8527  5.00116291160105
O3B FM4                 
1 39189U 13031B   22091.76017902 -.00000028  00000+0  00000+0 0  9993
2 39189   0.0624   9.5105 0002114 315.3855  35.0869  5.00116311160222
O3B FM2                 
1 39190U 13031C   22091.41292698 -.00000029  00000+0  00000+0 0  9995
2 39190   0.0677   9.3695 0004247 267.0048  83.5741  5.00116012160180
O3B PFM                 
1 39191U 13031D   22091.47976772 -.00000029  00000+0  00000+0 0  9994
2 39191   0.0438  13.9022 0002527 356.5126 349.5871  4.99480923159742
ASTRA 2E                
1 39285U 13056A   22091.51530669  .00000136  00000+0  00000+0 0  9999
2 39285   0.0777 327.2721 0002033  39.8461  36.7104  1.00270427 31012
SES-8                   
1 39460U 13071A   22091.59840944 -.00000283  00000+0  00000+0 0  9993
2 39460   0.0231 233.4097 0001928 165.9076 101.0181  1.00272596 29018
ASTRA 5B                
1 39617U 14011B   22091.51574279  .00000141  00000+0  00000+0 0  9991
2 39617   0.0509 341.9011 0002907  29.0827  36.0395  1.00275529 29241
O3B FM3                 
1 40079U 14038A   22091.34798779 -.00000029  00000+0  00000+0 0  9994
2 40079   0.0552  12.1708 0004670  19.1757 328.6780  5.00115370136118
O3B FM7                 
1 40080U 14038B   22091.49402754 -.00000029  00000+0  00000+0 0  9997
2 40080   0.0590  14.4336 0001327 312.1101  33.4446  5.00116018141227
O3B FM6                 
1 40081U 14038C   22091.32044883 -.00000029  00000+0  00000+0 0  9995
2 40081   0.0557  11.1975 0002605   0.5499 348.2553  5.00115483140895
O3B FM8                 
1 40082U 14038D   22090.97465708 -.00000029  00000+0  00000+0 0  9999
2 40082   0.0583   9.4697 0002740   0.1891 350.3430  5.00115518141177
O3B FM10                
1 40348U 14083A   22091.40042449 -.00000029  00000+0  00000+0 0  9996
2 40348   0.0469   8.6771 0002599   2.3629 348.9624  5.00115943132961
O3B FM11                
1 40349U 14083B   22091.41386625 -.00000029  00000+0  00000+0 0  9995
2 40349   0.0471  14.4502 0001861 358.2125 347.3387  5.00115303132988
O3B FM12                
1 40350U 14083C   22091.24114427 -.00000029  00000+0  00000+0 0  9997
2 40350   0.0478  13.6613 0002485   1.2707 345.0719  5.00115230132988
O3B FM9                 
1 40351U 14083D   22091.06819809 -.00000029  00000+0  00000+0 0  9994
2 40351   0.0468  15.8599 0002521 355.4289 348.7134  5.00115022133122
ASTRA 2G                
1 40364U 14089A   22091.51521948  .00000136  00000+0  00000+0 0  9996
2 40364   0.0101  57.6909 0004394 336.3071   9.5278  1.00268180 26544
SES-9                   
1 41380U 16013A   22091.52896872 -.00000359  00000+0  00000+0 0  9994
2 41380   0.0257 271.4961 0001778 143.6337  73.4427  1.00272225 22026
SES-10                  
1 42432U 17017A   22091.44515389 -.00000286  00000+0  00000+0 0  9999
2 42432   0.0161 185.0391 0002679 181.7860 276.3008  1.00269654 18320
SES-15                  
1 42709U 17026A   22091.60739553  .00000047  00000+0  00000+0 0  9999
2 42709   0.0194  18.9607 0000323 341.9666 278.4987  1.00271773 18723
SES-11 (ECHOSTAR 105)   
1 42967U 17063A   22091.57380274 -.00000102  00000+0  00000+0 0  9997
2 42967   0.0474  94.5823 0002160 270.1191 286.8138  1.00272257 16308
SES-14                  
1 43175U 18012B   22091.50013074 -.00000292  00000+0  00000+0 0  9998
2 43175   0.0134 264.6510 0000795  96.9646 320.7448  1.00272117 15639
O3B FM15                
1 43231U 18024A   22091.33422886 -.00000029  00000+0  00000+0 0  9998
2 43231   0.0467   4.5244 0002698   9.9883 345.4917  5.00115947 74098
O3B FM16                
1 43232U 18024B   22091.38757491 -.00000029  00000+0  00000+0 0  9997
2 43232   0.0458 359.4233 0002663  15.2015 345.3795  5.00115825 74018
O3B FM14                
1 43233U 18024C   22091.02729800 -.00000029  00000+0  00000+0 0  9992
2 43233   0.0463 357.6053 0002512  14.4936 347.9036  5.00116310 74006
O3B FM13                
1 43234U 18024D   22089.68141193 -.00000030  00000+0  00000+0 0  9997
2 43234   0.0335  47.4961 0002726 344.8009 327.7155  5.00114720 74051
SES-12                  
1 43488U 18049A   22091.55535559 -.00000283  00000+0  00000+0 0  9997
2 43488   0.0447  52.3267 0001751 253.6357 178.8356  1.00272163 14009
O3B FM20                
1 44112U 19020A   22091.45377383 -.00000029  00000+0  00000+0 0  9998
2 44112   0.0476   8.4463 0002422  11.6651 339.8948  5.00115387 54649
O3B FM19                
1 44113U 19020B   22088.88183729 -.00000030  00000+0  00000+0 0  9993
2 44113   0.0209  26.2056 0002168 319.7987  13.9854  5.00114806 54372
O3B FM17                
1 44114U 19020C   22091.36121723 -.00000029  00000+0  00000+0 0  9995
2 44114   0.0627 355.1280 0002731  21.6807 343.1970  5.00115381 54596
O3B FM18                
1 44115U 19020D   22091.30781698 -.00000029  00000+0  00000+0 0  9993
2 44115   0.0472   8.7158 0002796   4.4007 346.8875  5.00115716 54712
SES-17                  
1 49332U 21095A   22090.62619111 -.00000043  00000+0  00000+0 0  9994
2 49332   0.6612 255.5304 1356240 193.2441 132.4487  1.03381350  2417